start=new Date('2023-03-09T00:00:00.000Z').valueOf();
sats=[{"OBJECT_NAME":"STARLINK-3200","MEAN_MOTION_DOT":"0.00024000","MEAN_ANOMALY":"300.8868","ELEMENT_SET_NO":"999","RCS_SIZE":"LARGE","TIME_SYSTEM":"UTC","COUNTRY_CODE":"US","OBJECT_ID":"2021-115AF","MEAN_MOTION":"15.08856534","REF_FRAME":"TEME","EPHEMERIS_TYPE":"0","EPOCH":"2023-03-08T22:04:36.745536","OBJECT_TYPE":"PAYLOAD","MEAN_ELEMENT_THEORY":"SGP4","NORAD_CAT_ID":"49753","ECCENTRICITY":"0.00010970","ARG_OF_PERICENTER":"59.2232","TLE_LINE1":"1 49753U 21115AF  23067.91986974  .00024000  00000-0  15202-2 0  9997","INCLINATION":"53.2178","REV_AT_EPOCH":"6996","CLASSIFICATION_TYPE":"U","MEAN_MOTION_DDOT":"0.0000000000000","PERIOD":"95.437","DECAY_DATE":null,"FILE":"3855077","LAUNCH_DATE":"2021-12-02","SITE":"AFETR","TLE_LINE2":"2 49753  53.2178  32.7135 0001097  59.2232 300.8868 15.08856534 69965","CENTER_NAME":"EARTH","APOAPSIS":"540.454","GP_ID":"227722360","RA_OF_ASC_NODE":"32.7135","BSTAR":"0.00152020000000","PERIAPSIS":"538.936","SEMIMAJOR_AXIS":"6917.830"},{"PERIOD":"95.436","MEAN_MOTION_DDOT":"0.0000000000000","DECAY_DATE":null,"LAUNCH_DATE":"2021-12-02","FILE":"3855068","SITE":"AFETR","TLE_LINE2":"2 49754  53.2180  22.4127 0001000  83.3161 276.7945 15.08866646 71223","CENTER_NAME":"EARTH","RA_OF_ASC_NODE":"22.4127","GP_ID":"227699237","APOAPSIS":"540.356","SEMIMAJOR_AXIS":"6917.799","PERIAPSIS":"538.972","BSTAR":"0.00227880000000","MEAN_MOTION_DOT":"0.00036192","OBJECT_NAME":"STARLINK-3193","MEAN_ANOMALY":"276.7945","ELEMENT_SET_NO":"999","TIME_SYSTEM":"UTC","RCS_SIZE":"LARGE","COUNTRY_CODE":"US","OBJECT_ID":"2021-115AG","MEAN_MOTION":"15.08866646","EPHEMERIS_TYPE":"0","REF_FRAME":"TEME","EPOCH":"2023-03-09T00:13:07.404672","OBJECT_TYPE":"PAYLOAD","NORAD_CAT_ID":"49754","MEAN_ELEMENT_THEORY":"SGP4","ECCENTRICITY":"0.00010000","ARG_OF_PERICENTER":"83.3161","INCLINATION":"53.2180","TLE_LINE1":"1 49754U 21115AG  23068.00911348  .00036192  00000-0  22788-2 0  9994","REV_AT_EPOCH":"7122","CLASSIFICATION_TYPE":"U"},{"RA_OF_ASC_NODE":"32.6759","GP_ID":"227722860","APOAPSIS":"540.509","SEMIMAJOR_AXIS":"6917.795","PERIAPSIS":"538.810","BSTAR":"0.00226470000000","TLE_LINE2":"2 49755  53.2190  32.6759 0001228  80.7300 279.3831 15.08868054 69963","CENTER_NAME":"EARTH","SITE":"AFETR","MEAN_MOTION_DDOT":"0.0000000000000","PERIOD":"95.436","DECAY_DATE":null,"LAUNCH_DATE":"2021-12-02","FILE":"3855077","ECCENTRICITY":"0.00012280","ARG_OF_PERICENTER":"80.7300","INCLINATION":"53.2190","TLE_LINE1":"1 49755U 21115AH  23067.92722277  .00035967  00000-0  22647-2 0  9999","CLASSIFICATION_TYPE":"U","REV_AT_EPOCH":"6996","EPOCH":"2023-03-08T22:15:12.047328","OBJECT_TYPE":"PAYLOAD","NORAD_CAT_ID":"49755","MEAN_ELEMENT_THEORY":"SGP4","COUNTRY_CODE":"US","OBJECT_ID":"2021-115AH","MEAN_MOTION":"15.08868054","EPHEMERIS_TYPE":"0","REF_FRAME":"TEME","MEAN_MOTION_DOT":"0.00035967","OBJECT_NAME":"STARLINK-3210","MEAN_ANOMALY":"279.3831","ELEMENT_SET_NO":"999","TIME_SYSTEM":"UTC","RCS_SIZE":"LARGE"},{"OBJECT_NAME":"STARLINK-3207","MEAN_MOTION_DOT":"0.00036045","MEAN_ANOMALY":"246.7176","ELEMENT_SET_NO":"999","RCS_SIZE":"LARGE","TIME_SYSTEM":"UTC","COUNTRY_CODE":"US","OBJECT_ID":"2021-115AJ","MEAN_MOTION":"15.08859295","REF_FRAME":"TEME","EPHEMERIS_TYPE":"0","EPOCH":"2023-03-09T00:23:42.262368","OBJECT_TYPE":"PAYLOAD","MEAN_ELEMENT_THEORY":"SGP4","NORAD_CAT_ID":"49756","ECCENTRICITY":"0.00018110","ARG_OF_PERICENTER":"113.4007","TLE_LINE1":"1 49756U 21115AJ  23068.01646137  .00036045  00000-0  22701-2 0  9990","INCLINATION":"53.2189","CLASSIFICATION_TYPE":"U","REV_AT_EPOCH":"7122","PERIOD":"95.436","MEAN_MOTION_DDOT":"0.0000000000000","DECAY_DATE":null,"FILE":"3855066","LAUNCH_DATE":"2021-12-02","SITE":"AFETR","TLE_LINE2":"2 49756  53.2189  22.2735 0001811 113.4007 246.7176 15.08859295 71226","CENTER_NAME":"EARTH","APOAPSIS":"540.939","RA_OF_ASC_NODE":"22.2735","GP_ID":"227699208","PERIAPSIS":"538.434","BSTAR":"0.00227010000000","SEMIMAJOR_AXIS":"6917.821"},{"RA_OF_ASC_NODE":"22.3135","GP_ID":"227698983","APOAPSIS":"540.516","SEMIMAJOR_AXIS":"6917.885","BSTAR":"0.00108910000000","PERIAPSIS":"538.984","TLE_LINE2":"2 49757  53.2196  22.3135 0001107   9.1206 350.9806 15.08838433 71229","CENTER_NAME":"EARTH","SITE":"AFETR","MEAN_MOTION_DDOT":"0.0000000000000","PERIOD":"95.438","DECAY_DATE":null,"LAUNCH_DATE":"2021-12-02","FILE":"3855066","ECCENTRICITY":"0.00011070","ARG_OF_PERICENTER":"9.1206","INCLINATION":"53.2196","TLE_LINE1":"1 49757U 21115AK  23068.01005218  .00017087  00000-0  10891-2 0  9992","REV_AT_EPOCH":"7122","CLASSIFICATION_TYPE":"U","EPOCH":"2023-03-09T00:14:28.508352","OBJECT_TYPE":"PAYLOAD","NORAD_CAT_ID":"49757","MEAN_ELEMENT_THEORY":"SGP4","COUNTRY_CODE":"US","OBJECT_ID":"2021-115AK","MEAN_MOTION":"15.08838433","EPHEMERIS_TYPE":"0","REF_FRAME":"TEME","MEAN_MOTION_DOT":"0.00017087","OBJECT_NAME":"STARLINK-3197","MEAN_ANOMALY":"350.9806","ELEMENT_SET_NO":"999","TIME_SYSTEM":"UTC","RCS_SIZE":"LARGE"},{"RA_OF_ASC_NODE":"22.2481","GP_ID":"227698990","APOAPSIS":"540.397","SEMIMAJOR_AXIS":"6917.741","BSTAR":"0.00193000000000","PERIAPSIS":"538.815","TLE_LINE2":"2 49758  53.2182  22.2481 0001143  86.3401 273.7722 15.08885576 71221","CENTER_NAME":"EARTH","SITE":"AFETR","PERIOD":"95.435","MEAN_MOTION_DDOT":"0.0000000000000","DECAY_DATE":null,"LAUNCH_DATE":"2021-12-02","FILE":"3855066","ARG_OF_PERICENTER":"86.3401","ECCENTRICITY":"0.00011430","INCLINATION":"53.2182","TLE_LINE1":"1 49758U 21115AL  23068.02383204  .00030600  00000-0  19300-2 0  9998","CLASSIFICATION_TYPE":"U","REV_AT_EPOCH":"7122","EPOCH":"2023-03-09T00:34:19.088256","OBJECT_TYPE":"PAYLOAD","NORAD_CAT_ID":"49758","MEAN_ELEMENT_THEORY":"SGP4","COUNTRY_CODE":"US","OBJECT_ID":"2021-115AL","MEAN_MOTION":"15.08885576","EPHEMERIS_TYPE":"0","REF_FRAME":"TEME","OBJECT_NAME":"STARLINK-3194","MEAN_MOTION_DOT":"0.00030600","MEAN_ANOMALY":"273.7722","ELEMENT_SET_NO":"999","TIME_SYSTEM":"UTC","RCS_SIZE":"LARGE"},{"TLE_LINE2":"2 49759  53.2171  22.2881 0001343 108.2353 251.8785 15.08854242 71228","CENTER_NAME":"EARTH","GP_ID":"227698972","RA_OF_ASC_NODE":"22.2881","APOAPSIS":"540.631","SEMIMAJOR_AXIS":"6917.837","BSTAR":"0.00172900000000","PERIAPSIS":"538.773","MEAN_MOTION_DDOT":"0.0000000000000","PERIOD":"95.437","DECAY_DATE":null,"LAUNCH_DATE":"2021-12-02","FILE":"3855073","SITE":"AFETR","EPOCH":"2023-03-09T00:18:24.375168","OBJECT_TYPE":"PAYLOAD","NORAD_CAT_ID":"49759","MEAN_ELEMENT_THEORY":"SGP4","ECCENTRICITY":"0.00013430","ARG_OF_PERICENTER":"108.2353","INCLINATION":"53.2171","TLE_LINE1":"1 49759U 21115AM  23068.01278212  .00027347  00000-0  17290-2 0  9990","CLASSIFICATION_TYPE":"U","REV_AT_EPOCH":"7122","MEAN_MOTION_DOT":"0.00027347","OBJECT_NAME":"STARLINK-3204","MEAN_ANOMALY":"251.8785","ELEMENT_SET_NO":"999","TIME_SYSTEM":"UTC","RCS_SIZE":"LARGE","COUNTRY_CODE":"US","OBJECT_ID":"2021-115AM","MEAN_MOTION":"15.08854242","EPHEMERIS_TYPE":"0","REF_FRAME":"TEME"},{"CENTER_NAME":"EARTH","TLE_LINE2":"2 49760  53.2174  22.8112 0001081  69.6669 290.4439 15.08863638 70105","SEMIMAJOR_AXIS":"6917.808","BSTAR":"0.00250230000000","PERIAPSIS":"538.925","RA_OF_ASC_NODE":"22.8112","GP_ID":"227723608","APOAPSIS":"540.421","LAUNCH_DATE":"2021-12-02","FILE":"3855077","DECAY_DATE":null,"MEAN_MOTION_DDOT":"0.0000000000000","PERIOD":"95.436","SITE":"AFETR","NORAD_CAT_ID":"49760","MEAN_ELEMENT_THEORY":"SGP4","OBJECT_TYPE":"PAYLOAD","EPOCH":"2023-03-08T21:34:08.183712","CLASSIFICATION_TYPE":"U","REV_AT_EPOCH":"7010","INCLINATION":"53.2174","TLE_LINE1":"1 49760U 21115AN  23067.89870583  .00039787  00000-0  25023-2 0  9990","ARG_OF_PERICENTER":"69.6669","ECCENTRICITY":"0.00010810","TIME_SYSTEM":"UTC","RCS_SIZE":"LARGE","ELEMENT_SET_NO":"999","MEAN_ANOMALY":"290.4439","MEAN_MOTION_DOT":"0.00039787","OBJECT_NAME":"STARLINK-3199","EPHEMERIS_TYPE":"0","REF_FRAME":"TEME","MEAN_MOTION":"15.08863638","OBJECT_ID":"2021-115AN","COUNTRY_CODE":"US"},{"REV_AT_EPOCH":"7122","CLASSIFICATION_TYPE":"U","INCLINATION":"53.2171","TLE_LINE1":"1 49761U 21115AP  23068.02014059  .00016745  00000-0  10672-2 0  9998","ECCENTRICITY":"0.00011730","ARG_OF_PERICENTER":"112.4364","NORAD_CAT_ID":"49761","MEAN_ELEMENT_THEORY":"SGP4","OBJECT_TYPE":"PAYLOAD","EPOCH":"2023-03-09T00:29:00.146976","EPHEMERIS_TYPE":"0","REF_FRAME":"TEME","MEAN_MOTION":"15.08855614","OBJECT_ID":"2021-115AP","COUNTRY_CODE":"US","TIME_SYSTEM":"UTC","RCS_SIZE":"LARGE","ELEMENT_SET_NO":"999","MEAN_ANOMALY":"247.6752","MEAN_MOTION_DOT":"0.00016745","OBJECT_NAME":"STARLINK-3203","SEMIMAJOR_AXIS":"6917.833","BSTAR":"0.00106720000000","PERIAPSIS":"538.886","RA_OF_ASC_NODE":"22.2571","GP_ID":"227699008","APOAPSIS":"540.509","CENTER_NAME":"EARTH","TLE_LINE2":"2 49761  53.2171  22.2571 0001173 112.4364 247.6752 15.08855614 71228","SITE":"AFETR","LAUNCH_DATE":"2021-12-02","FILE":"3855068","DECAY_DATE":null,"MEAN_MOTION_DDOT":"0.0000000000000","PERIOD":"95.437"},{"REF_FRAME":"TEME","EPHEMERIS_TYPE":"0","MEAN_MOTION":"15.08883977","OBJECT_ID":"2021-115AQ","COUNTRY_CODE":"US","RCS_SIZE":"LARGE","TIME_SYSTEM":"UTC","ELEMENT_SET_NO":"999","MEAN_ANOMALY":"247.8697","OBJECT_NAME":"STARLINK-3195","MEAN_MOTION_DOT":"0.00052023","REV_AT_EPOCH":"7122","CLASSIFICATION_TYPE":"U","TLE_LINE1":"1 49762U 21115AQ  23067.97229545  .00052023  00000-0  32589-2 0  9990","INCLINATION":"53.2165","ECCENTRICITY":"0.00015190","ARG_OF_PERICENTER":"112.2456","MEAN_ELEMENT_THEORY":"SGP4","NORAD_CAT_ID":"49762","OBJECT_TYPE":"PAYLOAD","EPOCH":"2023-03-08T23:20:06.326880","SITE":"AFETR","FILE":"3855066","LAUNCH_DATE":"2021-12-02","DECAY_DATE":null,"MEAN_MOTION_DDOT":"0.0000000000000","PERIOD":"95.435","PERIAPSIS":"538.560","BSTAR":"0.00325890000000","SEMIMAJOR_AXIS":"6917.746","APOAPSIS":"540.662","GP_ID":"227699207","RA_OF_ASC_NODE":"22.4732","CENTER_NAME":"EARTH","TLE_LINE2":"2 49762  53.2165  22.4732 0001519 112.2456 247.8697 15.08883977 71220"}];
